{
"type": "FeatureCollection",
"name": "pontos_unipe",
"crs": { "type": "name", "properties": { "name": "urn:ogc:def:crs:OGC:1.3:CRS84" } },
"features": [
{ "type": "Feature", "properties": { "id": 1, "level": 0, "nome": "bloco_a_sala_2", "tipo": null }, "geometry": { "type": "Point", "coordinates": [ -34.854984802052812, -7.159793472313471 ] } },
{ "type": "Feature", "properties": { "id": 1, "level": 0, "nome": "bloco_a_sala_3", "tipo": null }, "geometry": { "type": "Point", "coordinates": [ -34.854915367902791, -7.159777110289602 ] } },
{ "type": "Feature", "properties": { "id": 1, "level": 0, "nome": "bloco_a_sala_4", "tipo": null }, "geometry": { "type": "Point", "coordinates": [ -34.854846367716213, -7.15975859536715 ] } },
{ "type": "Feature", "properties": { "id": 1, "level": 0, "nome": "bloco_a_sala_7", "tipo": null }, "geometry": { "type": "Point", "coordinates": [ -34.854615933130837, -7.159698744798728 ] } },
{ "type": "Feature", "properties": { "id": 1, "level": 0, "nome": "bloco_a_sala_8", "tipo": null }, "geometry": { "type": "Point", "coordinates": [ -34.854527404589568, -7.15967893813407 ] } },
{ "type": "Feature", "properties": { "id": 1, "level": 0, "nome": "bloco_a_sala_9", "tipo": null }, "geometry": { "type": "Point", "coordinates": [ -34.854441045865478, -7.159654825671582 ] } },
{ "type": "Feature", "properties": { "id": 1, "level": 0, "nome": "bloco_a_sala_10", "tipo": null }, "geometry": { "type": "Point", "coordinates": [ -34.854268762380748, -7.159610475960468 ] } },
{ "type": "Feature", "properties": { "id": 1, "level": 0, "nome": "bloco_a_sala_11", "tipo": null }, "geometry": { "type": "Point", "coordinates": [ -34.854178931949164, -7.159590238712217 ] } },
{ "type": "Feature", "properties": { "id": 1, "level": 0, "nome": "bloco_a_sala_12", "tipo": null }, "geometry": { "type": "Point", "coordinates": [ -34.854086063773515, -7.159564834505692 ] } },
{ "type": "Feature", "properties": { "id": 1, "level": 0, "nome": "bloco_a_sala_15", "tipo": null }, "geometry": { "type": "Point", "coordinates": [ -34.853855195224703, -7.159502615722721 ] } },
{ "type": "Feature", "properties": { "id": 1, "level": 0, "nome": "bloco_a_sala_16", "tipo": null }, "geometry": { "type": "Point", "coordinates": [ -34.853798779977815, -7.15948625368842 ] } },
{ "type": "Feature", "properties": { "id": 1, "level": 0, "nome": "bloco_a_sala_17", "tipo": null }, "geometry": { "type": "Point", "coordinates": [ -34.853733251498731, -7.159473336292505 ] } },
{ "type": "Feature", "properties": { "id": 1, "level": 0, "nome": "bloco_a_sala_18", "tipo": null }, "geometry": { "type": "Point", "coordinates": [ -34.853698968387157, -7.159394109589553 ] } },
{ "type": "Feature", "properties": { "id": 1, "level": 0, "nome": "ct_sala_1", "tipo": null }, "geometry": { "type": "Point", "coordinates": [ -34.856041503023363, -7.159609614800983 ] } },
{ "type": "Feature", "properties": { "id": 1, "level": 0, "nome": "ct_sala_2", "tipo": null }, "geometry": { "type": "Point", "coordinates": [ -34.856101823941195, -7.159624685091678 ] } },
{ "type": "Feature", "properties": { "id": 1, "level": 0, "nome": "ct_sala_3", "tipo": null }, "geometry": { "type": "Point", "coordinates": [ -34.856096616379951, -7.159402505898395 ] } },
{ "type": "Feature", "properties": { "id": 1, "level": 0, "nome": "ct_sala_4", "tipo": null }, "geometry": { "type": "Point", "coordinates": [ -34.856159975041841, -7.159419729095542 ] } },
{ "type": "Feature", "properties": { "id": 1, "level": 0, "nome": "Cantina_CT", "tipo": "comercio" }, "geometry": { "type": "Point", "coordinates": [ -34.855946356539668, -7.159410363982162 ] } },
{ "type": "Feature", "properties": { "id": 1, "level": 0, "nome": "Tapiocabana", "tipo": "comercio" }, "geometry": { "type": "Point", "coordinates": [ -34.855272845284496, -7.159350082788064 ] } },
{ "type": "Feature", "properties": { "id": 1, "level": 0, "nome": "Restaurante - Piscina", "tipo": "comercio" }, "geometry": { "type": "Point", "coordinates": [ -34.855834393972764, -7.158613790417268 ] } },
{ "type": "Feature", "properties": { "id": 1, "level": 0, "nome": "Minaçaí", "tipo": "comercio" }, "geometry": { "type": "Point", "coordinates": [ -34.854699145619975, -7.158417445584347 ] } },
{ "type": "Feature", "properties": { "id": 1, "level": 0, "nome": "Pizzaria", "tipo": "comercio" }, "geometry": { "type": "Point", "coordinates": [ -34.853570840682181, -7.158432085333574 ] } },
{ "type": "Feature", "properties": { "id": 1, "level": 0, "nome": "comercio_museu", "tipo": "comercio" }, "geometry": { "type": "Point", "coordinates": [ -34.853441085614335, -7.16042696206256 ] } },
{ "type": "Feature", "properties": { "id": 2, "level": 0, "nome": "praca_das_pedras", "tipo": "turismo" }, "geometry": { "type": "Point", "coordinates": [ -34.853289181386621, -7.159362543283183 ] } },
{ "type": "Feature", "properties": { "id": 1, "level": 0, "nome": "reitoria", "tipo": null }, "geometry": { "type": "Point", "coordinates": [ -34.852573587523842, -7.159360861614277 ] } },
{ "type": "Feature", "properties": { "id": 1, "level": 0, "nome": "eva", "tipo": null }, "geometry": { "type": "Point", "coordinates": [ -34.854458297778457, -7.160414706246279 ] } },
{ "type": "Feature", "properties": { "id": 1, "level": 0, "nome": "biblioteca", "tipo": null }, "geometry": { "type": "Point", "coordinates": [ -34.85394757293728, -7.160235328608532 ] } },
{ "type": "Feature", "properties": { "id": 1, "level": 0, "nome": "museu", "tipo": null }, "geometry": { "type": "Point", "coordinates": [ -34.853206343964239, -7.159943839796729 ] } },
{ "type": "Feature", "properties": { "id": 1, "level": 0, "nome": "achados_e_perdidos", "tipo": null }, "geometry": { "type": "Point", "coordinates": [ -34.854241352713181, -7.161075039567327 ] } },
{ "type": "Feature", "properties": { "id": 1, "level": 0, "nome": "fisioterapia", "tipo": null }, "geometry": { "type": "Point", "coordinates": [ -34.854903487131168, -7.157892201736536 ] } },
{ "type": "Feature", "properties": { "id": 1, "level": 0, "nome": "fonoaudiologia", "tipo": null }, "geometry": { "type": "Point", "coordinates": [ -34.855335117417297, -7.158123151618391 ] } },
{ "type": "Feature", "properties": { "id": 1, "level": 0, "nome": "auditorio", "tipo": null }, "geometry": { "type": "Point", "coordinates": [ -34.852401839347166, -7.158508815238139 ] } },
{ "type": "Feature", "properties": { "id": 1, "level": 0, "nome": "medicina", "tipo": null }, "geometry": { "type": "Point", "coordinates": [ -34.851927272016866, -7.158858602890378 ] } },
{ "type": "Feature", "properties": { "id": 1, "level": 0, "nome": "ginasio", "tipo": null }, "geometry": { "type": "Point", "coordinates": [ -34.855726070503692, -7.159742039740973 ] } },
{ "type": "Feature", "properties": { "id": 1, "level": 0, "nome": "CT", "tipo": null }, "geometry": { "type": "Point", "coordinates": [ -34.856120150448632, -7.159511260824705 ] } },
{ "type": "Feature", "properties": { "id": 1, "level": 0, "nome": "educacao_fisica", "tipo": null }, "geometry": { "type": "Point", "coordinates": [ -34.856301765872239, -7.159764461973801 ] } },
{ "type": "Feature", "properties": { "id": 1, "level": 0, "nome": "praca_das_pedras", "tipo": null }, "geometry": { "type": "Point", "coordinates": [ -34.853289181386621, -7.159362543283183 ] } },
{ "type": "Feature", "properties": { "id": 1, "level": 0, "nome": "enfermagem", "tipo": null }, "geometry": { "type": "Point", "coordinates": [ -34.854211852093819, -7.160864000798284 ] } },
{ "type": "Feature", "properties": { "id": 1, "level": 0, "nome": "odontologia", "tipo": null }, "geometry": { "type": "Point", "coordinates": [ -34.853141342803468, -7.161038249454409 ] } }
]
}
